NORAD_CAT_ID,OBJECT_NAME,OBJECT_TYPE,EPOCH,MEAN_MOTION,ECCENTRICITY,INCLINATION,RA_OF_ASC_NODE,ARG_OF_PERICENTER,MEAN_ANOMALY,BSTAR,MEAN_MOTION_DOT,MEAN_MOTION_DDOT,TLE_LINE0,TLE_LINE1,TLE_LINE2,SEMIMAJOR_AXIS,PERIOD,APOGEE,PERIGEE,DECAYED
55749.0,STARLINK-5560,PAYLOAD,2024-04-11 14:29:18,14.98324683,0.0002995,70.0006,202.0481,266.8488,93.2329,5.0249e-05,5.07e-06,0.0,0 STARLINK-5560,1 55749U 23028J   24102.60368476  .00000507  00000-0  50249-4 0  9990,2 55749  70.0006 202.0481 0002995 266.8488  93.2329 14.98324683 61620,6950.209,96.107,574.156,569.993,0.0
55749.0,STARLINK-5560,PAYLOAD,2024-04-11 16:05:26,14.98325791,0.000299,70.0008,201.88,267.1526,92.9291,6.2965e-05,6.58e-06,0.0,0 STARLINK-5560,1 55749U 23028J   24102.67044399  .00000658  00000-0  62965-4 0  9997,2 55749  70.0008 201.8800 0002990 267.1526  92.9291 14.98325791 61632,6950.206,96.107,574.149,569.993,0.0
55749.0,STARLINK-5560,PAYLOAD,2024-04-12 12:55:11,14.98330795,0.0003035,70.0006,199.6913,269.4548,90.6264,-1.9056e-05,-3.2e-06,0.0,0 STARLINK-5560,1 55749U 23028J   24103.53832399 -.00000320  00000-0 -19056-4 0  9999,2 55749  70.0006 199.6913 0003035 269.4548  90.6264 14.98330795 61768,6950.19,96.107,574.165,569.946,0.0
55749.0,STARLINK-5560,PAYLOAD,2024-04-12 14:31:18,14.98334326,0.0003008,70.0005,199.5228,269.2248,90.8566,4.2862e-06,-4.2e-07,0.0,0 STARLINK-5560,1 55749U 23028J   24103.60508088 -.00000042  00000-0  42862-5 0  9994,2 55749  70.0005 199.5228 0003008 269.2248  90.8566 14.98334326 61772,6950.18,96.107,574.135,569.954,0.0
55749.0,STARLINK-5560,PAYLOAD,2024-04-13 12:57:12,14.98326207,0.0002982,70.0011,197.1671,269.1642,90.9176,0.00013599,1.53e-05,0.0,0 STARLINK-5560,1 55749U 23028J   24104.53972294  .00001530  00000-0  13599-3 0  9996,2 55749  70.0011 197.1671 0002982 269.1642  90.9176 14.98326207 61915,6950.205,96.107,574.142,569.997,0.0
55749.0,STARLINK-5560,PAYLOAD,2024-04-13 14:33:19,14.98327888,0.0002949,70.0011,196.9988,268.6511,91.431,0.00016329,1.856e-05,0.0,0 STARLINK-5560,1 55749U 23028J   24104.60648130  .00001856  00000-0  16329-3 0  9998,2 55749  70.0011 196.9988 0002949 268.6511  91.4310 14.98327888 61928,6950.199,96.107,574.114,570.015,0.0
55749.0,STARLINK-5560,PAYLOAD,2024-04-13 16:09:27,14.98329077,0.0002965,70.0012,196.8305,269.1741,90.9078,0.00017264,1.967e-05,0.0,0 STARLINK-5560,1 55749U 23028J   24104.67324045  .00001967  00000-0  17264-3 0  9993,2 55749  70.0012 196.8305 0002965 269.1741  90.9078 14.98329077 61938,6950.196,96.107,574.121,570.0,0.0
55749.0,STARLINK-5560,PAYLOAD,2024-04-14 16:11:28,14.98329063,0.0002537,70.0021,194.3074,263.6584,96.4286,0.00023047,2.658e-05,0.0,0 STARLINK-5560,1 55749U 23028J   24105.67463915  .00002658  00000-0  23047-3 0  9998,2 55749  70.0021 194.3074 0002537 263.6584  96.4286 14.98329063 62087,6950.196,96.107,573.824,570.298,0.0
55749.0,STARLINK-5560,PAYLOAD,2024-04-15 13:01:13,14.98367986,0.000247,70.0025,192.1195,265.0985,94.9892,-0.0007964,-9.591e-05,0.0,0 STARLINK-5560,1 55749U 23028J   24106.54251669 -.00009591  00000-0 -79640-3 0  9991,2 55749  70.0025 192.1195 0002470 265.0985  94.9892 14.98367986 62215,6950.075,96.105,573.657,570.224,0.0
55749.0,STARLINK-5560,PAYLOAD,2024-04-15 14:37:21,14.98368376,0.0002689,70.0014,191.9497,271.5056,88.5795,-0.00078436,-9.448e-05,0.0,0 STARLINK-5560,1 55749U 23028J   24106.60927520 -.00009448  00000-0 -78436-3 0  9997,2 55749  70.0014 191.9497 0002689 271.5056  88.5795 14.98368376 62224,6950.074,96.105,573.808,570.07,0.0
55749.0,STARLINK-5560,PAYLOAD,2024-04-15 16:13:28,14.98372991,0.0002848,70.0011,191.7804,274.0274,86.056,-0.0007658,-9.228e-05,0.0,0 STARLINK-5560,1 55749U 23028J   24106.67603007 -.00009228  00000-0 -76580-3 0  9999,2 55749  70.0011 191.7804 0002848 274.0274  86.0560 14.98372991 62230,6950.06,96.104,573.904,569.946,0.0
55749.0,STARLINK-5560,PAYLOAD,2024-04-15 22:38:02,14.983335,0.0002926,70.0014,191.1072,275.3884,84.6942,-5.5895e-06,-1.6e-06,0.0,0 STARLINK-5560,1 55749U 23028J   24106.94308228 -.00000160  00000-0 -55895-5 0  9990,2 55749  70.0014 191.1072 0002926 275.3884  84.6942 14.98333500 62277,6950.182,96.107,574.081,570.013,0.0
55749.0,STARLINK-5560,PAYLOAD,2024-04-16 13:03:14,14.98339991,0.0002637,70.0016,189.5944,269.2271,90.8586,0.00012232,1.367e-05,0.0,0 STARLINK-5560,1 55749U 23028J   24107.54391555  .00001367  00000-0  12232-3 0  9996,2 55749  70.0016 189.5944 0002637 269.2271  90.8586 14.98339991 62362,6950.162,96.106,573.86,570.194,0.0
55749.0,STARLINK-5560,PAYLOAD,2024-04-16 14:39:21,14.98345361,0.0002956,70.0006,189.4246,275.2517,84.8305,0.00016787,1.911e-05,0.0,0 STARLINK-5560,1 55749U 23028J   24107.61067013  .00001911  00000-0  16787-3 0  9997,2 55749  70.0006 189.4246 0002956 275.2517  84.8305 14.98345361 62370,6950.145,96.106,574.065,569.956,0.0
55749.0,STARLINK-5560,PAYLOAD,2024-04-17 13:05:15,14.98333678,0.0002779,70.0012,187.0687,259.9733,100.1113,0.00014805,1.674e-05,0.0,0 STARLINK-5560,1 55749U 23028J   24108.54531413  .00001674  00000-0  14805-3 0  9995,2 55749  70.0012 187.0687 0002779 259.9733 100.1113 14.98333678 62515,6950.182,96.107,573.978,570.115,0.0
55749.0,STARLINK-5560,PAYLOAD,2024-04-17 14:41:23,14.98334742,0.0002727,70.0014,186.9007,259.2849,100.8003,0.00016485,1.875e-05,0.0,0 STARLINK-5560,1 55749U 23028J   24108.61207290  .00001875  00000-0  16485-3 0  9995,2 55749  70.0014 186.9007 0002727 259.2849 100.8003 14.98334742 62524,6950.178,96.107,573.939,570.148,0.0
55749.0,STARLINK-5560,PAYLOAD,2024-04-18 13:07:17,14.98324879,0.0003037,70.0006,184.5447,270.4887,89.5924,-0.00016011,-2.003e-05,0.0,0 STARLINK-5560,1 55749U 23028J   24109.54672986 -.00002003  00000-0 -16011-3 0  9997,2 55749  70.0006 184.5447 0003037 270.4887  89.5924 14.98324879 62669,6950.209,96.107,574.185,569.963,0.0
55749.0,STARLINK-5560,PAYLOAD,2024-04-18 14:43:25,14.98322634,0.0003001,70.0011,184.377,269.1447,90.9368,-0.00011051,-1.411e-05,0.0,0 STARLINK-5560,1 55749U 23028J   24109.61349046 -.00001411  00000-0 -11051-3 0  9994,2 55749  70.0011 184.3770 0003001 269.1447  90.9368 14.98322634 62676,6950.216,96.107,574.166,569.995,0.0
55749.0,STARLINK-5560,PAYLOAD,2024-04-19 13:09:17,14.98336611,0.0002762,70.0011,182.0204,260.7533,99.3313,0.00016325,1.856e-05,0.0,0 STARLINK-5560,1 55749U 23028J   24110.54811738  .00001856  00000-0  16325-3 0  9990,2 55749  70.0011 182.0204 0002762 260.7533  99.3313 14.98336611 62818,6950.172,96.107,573.957,570.118,0.0
55749.0,STARLINK-5560,PAYLOAD,2024-04-19 14:45:25,14.98340708,0.0002807,70.0012,181.8531,261.6106,98.4735,0.00015183,1.72e-05,0.0,0 STARLINK-5560,1 55749U 23028J   24110.61487497  .00001720  00000-0  15183-3 0  9990,2 55749  70.0012 181.8531 0002807 261.6106  98.4735 14.98340708 62826,6950.16,96.106,573.976,570.074,0.0
55749.0,STARLINK-5560,PAYLOAD,2024-04-20 05:10:36,14.98344499,0.0002935,70.001,180.3385,268.2551,91.8272,0.00043106,5.056e-05,0.0,0 STARLINK-5560,1 55749U 23028J   24111.21570524  .00005056  00000-0  43106-3 0  9993,2 55749  70.0010 180.3385 0002935 268.2551  91.8272 14.98344499 62918,6950.148,96.106,574.053,569.973,0.0
55749.0,STARLINK-5560,PAYLOAD,2024-04-20 13:11:16,14.98378692,0.0002697,70.0035,179.4964,264.9995,95.0856,0.0012207,0.00014521,0.0,0 STARLINK-5560,1 55749U 23028J   24111.54950166  .00014521  00000-0  12207-2 0  9997,2 55749  70.0035 179.4964 0002697 264.9995  95.0856 14.98378692 62968,6950.042,96.104,573.782,570.033,0.0
55749.0,STARLINK-5560,PAYLOAD,2024-04-20 14:47:24,14.98383945,0.0002714,70.0036,179.328,266.1188,93.9661,0.0012278,0.00014608,0.0,0 STARLINK-5560,1 55749U 23028J   24111.61625895  .00014608  00000-0  12278-2 0  9997,2 55749  70.0036 179.3280 0002714 266.1188  93.9661 14.98383945 62976,6950.026,96.104,573.777,570.005,0.0
55749.0,STARLINK-5560,PAYLOAD,2024-04-21 05:12:38,14.98315574,0.0002793,70.0037,177.8137,266.8912,93.1928,-0.0011214,-0.00013442,0.0,0 STARLINK-5560,1 55749U 23028J   24112.21711203 -.00013442  00000-0 -11214-2 0  9999,2 55749  70.0037 177.8137 0002793 266.8912  93.1928 14.98315574 63062,6950.238,96.108,574.044,570.161,0.0
55749.0,STARLINK-5560,PAYLOAD,2024-04-21 13:13:19,14.98292067,0.0002661,70.0036,176.9711,252.4816,107.6052,-0.00087025,-0.00010451,0.0,0 STARLINK-5560,1 55749U 23028J   24112.55092299 -.00010451  00000-0 -87025-3 0  9994,2 55749  70.0036 176.9711 0002661 252.4816 107.6052 14.98292067 63113,6950.31,96.109,574.025,570.326,0.0
55749.0,STARLINK-5560,PAYLOAD,2024-04-22 05:14:41,14.98316156,0.0003222,70.0021,175.287,263.9848,96.0944,0.0020995,0.00025039,0.0,0 STARLINK-5560,1 55749U 23028J   24113.21853879  .00025039  00000-0  20995-2 0  9995,2 55749  70.0021 175.2870 0003222 263.9848  96.0944 14.98316156 63219,6950.236,96.108,574.34,569.861,0.0
55749.0,STARLINK-5560,PAYLOAD,2024-04-22 10:03:05,14.9833276,0.0003052,70.0024,174.7821,259.4569,100.6246,0.0023885,0.00028525,0.0,0 STARLINK-5560,1 55749U 23028J   24113.41881865  .00028525  00000-0  23885-2 0  9997,2 55749  70.0024 174.7821 0003052 259.4569 100.6246 14.98332760 63242,6950.184,96.107,574.171,569.928,0.0
55749.0,STARLINK-5560,PAYLOAD,2024-04-22 13:15:22,14.98335081,0.0003014,70.0023,174.4454,261.2026,98.8792,0.0020052,0.00023918,0.0,0 STARLINK-5560,1 55749U 23028J   24113.55233896  .00023918  00000-0  20052-2 0  9991,2 55749  70.0023 174.4454 0003014 261.2026  98.8792 14.98335081 63262,6950.177,96.107,574.137,569.947,0.0
55749.0,STARLINK-5560,PAYLOAD,2024-04-23 05:16:42,14.98357366,0.0002854,70.0033,172.7633,240.7713,119.3161,0.0016679,0.00019879,0.0,0 STARLINK-5560,1 55749U 23028J   24114.21993247  .00019879  00000-0  16679-2 0  9999,2 55749  70.0033 172.7633 0002854 240.7713 119.3161 14.98357366 63369,6950.108,96.105,573.957,569.99,0.0
55749.0,STARLINK-5560,PAYLOAD,2024-04-23 13:17:22,14.983577,0.0002914,70.0025,171.9213,253.8147,106.2691,0.0010579,0.00012561,0.0,0 STARLINK-5560,1 55749U 23028J   24114.55372826  .00012561  00000-0  10579-2 0  9994,2 55749  70.0025 171.9213 0002914 253.8147 106.2691 14.98357700 63419,6950.107,96.105,573.997,569.947,0.0
